{
  "type": "FeatureCollection",
  "features": [
    {
      "type": "Feature",
      "properties": {
        "norad_id": 34420,
        "name": "COSMOS 2251 DEB",
        "group": "cosmos-2251-debris",
        "lat": -13.451684659330951,
        "lon": -74.28138973976642,
        "alt_km": 604.6770032724589,
        "timestamp": "2025-12-13T20:38:51.402074+00:00",
        "meta_object_name": "COSMOS 2251 DEB",
        "meta_object_id": "1993-036RM",
        "meta_epoch": "2025-12-13T02:00:17.407584",
        "meta_mean_motion": 14.68300134,
        "meta_eccentricity": 0.01066231,
        "meta_inclination": 74.0335,
        "meta_ra_of_asc_node": 103.2938,
        "meta_arg_of_pericenter": 224.3556,
        "meta_mean_anomaly": 185.8315,
        "meta_ephemeris_type": 0,
        "meta_classification_type": "U",
        "meta_norad_cat_id": 34420,
        "meta_element_set_no": 999,
        "meta_rev_at_epoch": 89775,
        "meta_bstar": 0.00039803401,
        "meta_mean_motion_dot": 2.469e-05,
        "meta_mean_motion_ddot": 0,
        "tle_line1": "1 34420U 93036RM  25347.08353481  .00002469  00000+0  39803-3 0  9993",
        "tle_line2": "2 34420  74.0335 103.2938 0106623 224.3556 185.8315 14.68300134897755"
      },
      "geometry": {
        "type": "Point",
        "coordinates": [
          -74.28138973976642,
          -13.451684659330951
        ]
      }
    },
    {
      "type": "Feature",
      "properties": {
        "norad_id": 34425,
        "name": "COSMOS 2251 DEB",
        "group": "cosmos-2251-debris",
        "lat": -69.70107395895941,
        "lon": -76.85361052730045,
        "alt_km": 689.7297505037004,
        "timestamp": "2025-12-13T20:38:51.402086+00:00",
        "meta_object_name": "COSMOS 2251 DEB",
        "meta_object_id": "1993-036RS",
        "meta_epoch": "2025-12-13T06:20:20.108832",
        "meta_mean_motion": 14.62136205,
        "meta_eccentricity": 0.00248097,
        "meta_inclination": 74.0203,
        "meta_ra_of_asc_node": 53.5112,
        "meta_arg_of_pericenter": 179.8355,
        "meta_mean_anomaly": 180.2824,
        "meta_ephemeris_type": 0,
        "meta_classification_type": "U",
        "meta_norad_cat_id": 34425,
        "meta_element_set_no": 999,
        "meta_rev_at_epoch": 88748,
        "meta_bstar": 0.00092984732,
        "meta_mean_motion_dot": 4.669e-05,
        "meta_mean_motion_ddot": 0,
        "tle_line1": "1 34425U 93036RS  25347.26412163  .00004669  00000+0  92985-3 0  9995",
        "tle_line2": "2 34425  74.0203  53.5112 0024809 179.8355 180.2824 14.62136205887484"
      },
      "geometry": {
        "type": "Point",
        "coordinates": [
          -76.85361052730045,
          -69.70107395895941
        ]
      }
    },
    {
      "type": "Feature",
      "properties": {
        "norad_id": 34429,
        "name": "COSMOS 2251 DEB",
        "group": "cosmos-2251-debris",
        "lat": -73.32325430577566,
        "lon": 91.8839045475862,
        "alt_km": 446.3638358228609,
        "timestamp": "2025-12-13T20:38:51.402097+00:00",
        "meta_object_name": "COSMOS 2251 DEB",
        "meta_object_id": "1993-036RW",
        "meta_epoch": "2025-12-12T22:10:54.371424",
        "meta_mean_motion": 15.4171588,
        "meta_eccentricity": 0.00075189,
        "meta_inclination": 73.9699,
        "meta_ra_of_asc_node": 167.6115,
        "meta_arg_of_pericenter": 5.8726,
        "meta_mean_anomaly": 114.8984,
        "meta_ephemeris_type": 0,
        "meta_classification_type": "U",
        "meta_norad_cat_id": 34429,
        "meta_element_set_no": 999,
        "meta_rev_at_epoch": 89451,
        "meta_bstar": 0.006275983,
        "meta_mean_motion_dot": 0.00275022,
        "meta_mean_motion_ddot": 0,
        "tle_line1": "1 34429U 93036RW  25346.92424041  .00275022  00000+0  62760-2 0  9999",
        "tle_line2": "2 34429  73.9699 167.6115 0007518   5.8726 114.8984 15.41715880894515"
      },
      "geometry": {
        "type": "Point",
        "coordinates": [
          91.8839045475862,
          -73.32325430577566
        ]
      }
    },
    {
      "type": "Feature",
      "properties": {
        "norad_id": 34430,
        "name": "COSMOS 2251 DEB",
        "group": "cosmos-2251-debris",
        "lat": -50.04372981405892,
        "lon": -78.66135199434461,
        "alt_km": 746.7620883211039,
        "timestamp": "2025-12-13T20:38:51.402107+00:00",
        "meta_object_name": "COSMOS 2251 DEB",
        "meta_object_id": "1993-036RX",
        "meta_epoch": "2025-12-13T07:32:54.360384",
        "meta_mean_motion": 14.39636678,
        "meta_eccentricity": 0.00603665,
        "meta_inclination": 74.0522,
        "meta_ra_of_asc_node": 302.3016,
        "meta_arg_of_pericenter": 11.7984,
        "meta_mean_anomaly": 348.4568,
        "meta_ephemeris_type": 0,
        "meta_classification_type": "U",
        "meta_norad_cat_id": 34430,
        "meta_element_set_no": 999,
        "meta_rev_at_epoch": 87963,
        "meta_bstar": 0.00085503332,
        "meta_mean_motion_dot": 2.705e-05,
        "meta_mean_motion_ddot": 0,
        "tle_line1": "1 34430U 93036RX  25347.31451806  .00002705  00000+0  85503-3 0  9991",
        "tle_line2": "2 34430  74.0522 302.3016 0060366  11.7984 348.4568 14.39636678879636"
      },
      "geometry": {
        "type": "Point",
        "coordinates": [
          -78.66135199434461,
          -50.04372981405892
        ]
      }
    },
    {
      "type": "Feature",
      "properties": {
        "norad_id": 34431,
        "name": "COSMOS 2251 DEB",
        "group": "cosmos-2251-debris",
        "lat": 13.400281959648565,
        "lon": -10.728370196799055,
        "alt_km": 747.9611678256233,
        "timestamp": "2025-12-13T20:38:51.402118+00:00",
        "meta_object_name": "COSMOS 2251 DEB",
        "meta_object_id": "1993-036RY",
        "meta_epoch": "2025-12-12T22:01:46.667136",
        "meta_mean_motion": 14.28774735,
        "meta_eccentricity": 0.00682352,
        "meta_inclination": 74.0746,
        "meta_ra_of_asc_node": 174.8773,
        "meta_arg_of_pericenter": 160.5126,
        "meta_mean_anomaly": 199.8657,
        "meta_ephemeris_type": 0,
        "meta_classification_type": "U",
        "meta_norad_cat_id": 34431,
        "meta_element_set_no": 999,
        "meta_rev_at_epoch": 87145,
        "meta_bstar": 0.00098967599,
        "meta_mean_motion_dot": 2.531e-05,
        "meta_mean_motion_ddot": 0,
        "tle_line1": "1 34431U 93036RY  25346.91790124  .00002531  00000+0  98968-3 0  9992",
        "tle_line2": "2 34431  74.0746 174.8773 0068235 160.5126 199.8657 14.28774735871455"
      },
      "geometry": {
        "type": "Point",
        "coordinates": [
          -10.728370196799055,
          13.400281959648565
        ]
      }
    },
    {
      "type": "Feature",
      "properties": {
        "norad_id": 34432,
        "name": "COSMOS 2251 DEB",
        "group": "cosmos-2251-debris",
        "lat": 61.06946415208547,
        "lon": 132.0172531600137,
        "alt_km": 935.8689542245202,
        "timestamp": "2025-12-13T20:38:51.402129+00:00",
        "meta_object_name": "COSMOS 2251 DEB",
        "meta_object_id": "1993-036RZ",
        "meta_epoch": "2025-12-13T06:45:31.252608",
        "meta_mean_motion": 14.0291261,
        "meta_eccentricity": 0.01824603,
        "meta_inclination": 73.8286,
        "meta_ra_of_asc_node": 101.3698,
        "meta_arg_of_pericenter": 183.9644,
        "meta_mean_anomaly": 202.0122,
        "meta_ephemeris_type": 0,
        "meta_classification_type": "U",
        "meta_norad_cat_id": 34432,
        "meta_element_set_no": 999,
        "meta_rev_at_epoch": 85692,
        "meta_bstar": 0.0020288727,
        "meta_mean_motion_dot": 3.619e-05,
        "meta_mean_motion_ddot": 0,
        "tle_line1": "1 34432U 93036RZ  25347.28161172  .00003619  00000+0  20289-2 0  9997",
        "tle_line2": "2 34432  73.8286 101.3698 0182460 183.9644 202.0122 14.02912610856921"
      },
      "geometry": {
        "type": "Point",
        "coordinates": [
          132.0172531600137,
          61.06946415208547
        ]
      }
    },
    {
      "type": "Feature",
      "properties": {
        "norad_id": 34433,
        "name": "COSMOS 2251 DEB",
        "group": "cosmos-2251-debris",
        "lat": 46.264554400479454,
        "lon": -44.480598256268266,
        "alt_km": 948.1636697827425,
        "timestamp": "2025-12-13T20:38:51.402140+00:00",
        "meta_object_name": "COSMOS 2251 DEB",
        "meta_object_id": "1993-036SA",
        "meta_epoch": "2025-12-12T21:55:36.443136",
        "meta_mean_motion": 14.12854921,
        "meta_eccentricity": 0.01523156,
        "meta_inclination": 74.0115,
        "meta_ra_of_asc_node": 154.6321,
        "meta_arg_of_pericenter": 292.6764,
        "meta_mean_anomaly": 65.8332,
        "meta_ephemeris_type": 0,
        "meta_classification_type": "U",
        "meta_norad_cat_id": 34433,
        "meta_element_set_no": 999,
        "meta_rev_at_epoch": 85952,
        "meta_bstar": 0.0017227989,
        "meta_mean_motion_dot": 3.552e-05,
        "meta_mean_motion_ddot": 0,
        "tle_line1": "1 34433U 93036SA  25346.91361624  .00003552  00000+0  17228-2 0  9996",
        "tle_line2": "2 34433  74.0115 154.6321 0152315 292.6764  65.8332 14.12854921859525"
      },
      "geometry": {
        "type": "Point",
        "coordinates": [
          -44.480598256268266,
          46.264554400479454
        ]
      }
    }
  ]
}